{"type": "FeatureCollection", "features": [ {"type": "Feature", "properties": {"norad_id": 41469, "name": "IRNSS-1G", "group": "gnss", "lat": 4.5416903951124015, "lon": 173.75074079558865, "alt_km": 35787.60687221706, "timestamp": "2025-12-24T20:42:21.269670+00:00", "meta": {"OBJECT_NAME": "IRNSS-1G", "OBJECT_ID": "2016-027A", "EPOCH": "2025-12-23T22:21:51.634368", "MEAN_MOTION": 1.0027454, "ECCENTRICITY": 0.00026586, "INCLINATION": 4.762, "RA_OF_ASC_NODE": 101.8112, "ARG_OF_PERICENTER": 327.5849, "MEAN_ANOMALY": 128.3342, "EPHEMERIS_TYPE": 0, "CLASSIFICATION_TYPE": "U", "NORAD_CAT_ID": 41469, "ELEMENT_SET_NO": 999, "REV_AT_EPOCH": 3542, "BSTAR": 0, "MEAN_MOTION_DOT": -3.15e-06, "MEAN_MOTION_DDOT": 0}, "tle": {"line1": "1 41469U 16027A   25357.93184762 -.00000315  00000+0  00000+0 0  9990", "line2": "2 41469   4.7620 101.8112 0002658 327.5849 128.3342  1.00274540 35428"}}, "geometry": {"type": "Point", "coordinates": [173.75074079558865, 4.5416903951124015]}}, {"type": "Feature", "properties": {"norad_id": 41549, "name": "GSAT0211 (GALILEO 14)", "group": "gnss", "lat": 5.80034960922677, "lon": 42.446843082268686, "alt_km": 23232.775161884554, "timestamp": "2025-12-24T20:42:21.269682+00:00", "meta": {"OBJECT_NAME": "GSAT0211 (GALILEO 14)", "OBJECT_ID": "2016-030A", "EPOCH": "2025-12-22T05:38:05.943264", "MEAN_MOTION": 1.70473275, "ECCENTRICITY": 0.00040882, "INCLINATION": 55.1491, "RA_OF_ASC_NODE": 226.562, "ARG_OF_PERICENTER": 17.521, "MEAN_ANOMALY": 342.5988, "EPHEMERIS_TYPE": 0, "CLASSIFICATION_TYPE": "U", "NORAD_CAT_ID": 41549, "ELEMENT_SET_NO": 999, "REV_AT_EPOCH": 5965, "BSTAR": 0, "MEAN_MOTION_DOT": 7.3e-07, "MEAN_MOTION_DDOT": 0}, "tle": {"line1": "1 41549U 16030A   25356.23479101  .00000073  00000+0  00000+0 0  9999", "line2": "2 41549  55.1491 226.5620 0004088  17.5210 342.5988  1.70473275 59659"}}, "geometry": {"type": "Point", "coordinates": [42.446843082268686, 5.80034960922677]}}, {"type": "Feature", "properties": {"norad_id": 41550, "name": "GSAT0210 (GALILEO 13)", "group": "gnss", "lat": 12.15602612989207, "lon": -124.86682821473146, "alt_km": 23222.492625667204, "timestamp": "2025-12-24T20:42:21.269693+00:00", "meta": {"OBJECT_NAME": "GSAT0210 (GALILEO 13)", "OBJECT_ID": "2016-030B", "EPOCH": "2025-12-23T01:53:26.064096", "MEAN_MOTION": 1.704734, "ECCENTRICITY": 5.527e-05, "INCLINATION": 55.1484, "RA_OF_ASC_NODE": 226.5368, "ARG_OF_PERICENTER": 180.205, "MEAN_ANOMALY": 179.8969, "EPHEMERIS_TYPE": 0, "CLASSIFICATION_TYPE": "U", "NORAD_CAT_ID": 41550, "ELEMENT_SET_NO": 999, "REV_AT_EPOCH": 5966, "BSTAR": 0, "MEAN_MOTION_DOT": 7.3e-07, "MEAN_MOTION_DDOT": 0}, "tle": {"line1": "1 41550U 16030B   25357.07877389  .00000073  00000+0  00000+0 0  9994", "line2": "2 41550  55.1484 226.5368 0000552 180.2050 179.8969  1.70473400 59665"}}, "geometry": {"type": "Point", "coordinates": [-124.86682821473146, 12.15602612989207]}}, {"type": "Feature", "properties": {"norad_id": 41586, "name": "BEIDOU-2 G7 (C03)", "group": "gnss", "lat": 1.7957712704673308, "lon": 154.7045867917061, "alt_km": 35784.86066256742, "timestamp": "2025-12-24T20:42:21.269706+00:00", "meta": {"OBJECT_NAME": "BEIDOU-2 G7 (C03)", "OBJECT_ID": "2016-037A", "EPOCH": "2025-12-24T06:46:33.984192", "MEAN_MOTION": 1.00269256, "ECCENTRICITY": 0.000522, "INCLINATION": 1.7834, "RA_OF_ASC_NODE": 67.8882, "ARG_OF_PERICENTER": 1.209, "MEAN_ANOMALY": 236.0405, "EPHEMERIS_TYPE": 0, "CLASSIFICATION_TYPE": "U", "NORAD_CAT_ID": 41586, "ELEMENT_SET_NO": 999, "REV_AT_EPOCH": 513, "BSTAR": 0, "MEAN_MOTION_DOT": -3.33e-06, "MEAN_MOTION_DDOT": 0}, "tle": {"line1": "1 41586U 16037A   25358.28233778 -.00000333  00000+0  00000+0 0  9992", "line2": "2 41586   1.7834  67.8882 0005220   1.2090 236.0405  1.00269256  5139"}}, "geometry": {"type": "Point", "coordinates": [154.7045867917061, 1.7957712704673308]}}, {"type": "Feature", "properties": {"norad_id": 41589, "name": "EUTELSAT 117 WEST B (WAAS/PRN 131)", "group": "gnss", "lat": 0.003856840452450116, "lon": -72.80825034259556, "alt_km": 35785.66173313805, "timestamp": "2025-12-24T20:42:21.269718+00:00", "meta": {"OBJECT_NAME": "EUTELSAT 117 WEST B (WAAS/PRN 131)", "OBJECT_ID": "2016-038B", "EPOCH": "2025-12-23T15:59:57.810912", "MEAN_MOTION": 1.00269264, "ECCENTRICITY": 2.679e-05, "INCLINATION": 0.0112, "RA_OF_ASC_NODE": 151.1868, "ARG_OF_PERICENTER": 153.5075, "MEAN_ANOMALY": 270.7383, "EPHEMERIS_TYPE": 0, "CLASSIFICATION_TYPE": "U", "NORAD_CAT_ID": 41589, "ELEMENT_SET_NO": 999, "REV_AT_EPOCH": 3490, "BSTAR": 0, "MEAN_MOTION_DOT": 1e-07, "MEAN_MOTION_DDOT": 0}, "tle": {"line1": "1 41589U 16038B   25357.66664133  .00000010  00000+0  00000+0 0  9991", "line2": "2 41589   0.0112 151.1868 0000267 153.5075 270.7383  1.00269264 34900"}}, "geometry": {"type": "Point", "coordinates": [-72.80825034259556, 0.003856840452450116]}}, {"type": "Feature", "properties": {"norad_id": 41859, "name": "GSAT0207 (GALILEO 15)", "group": "gnss", "lat": -19.662592501758816, "lon": -59.82060473783342, "alt_km": 23227.70421238015, "timestamp": "2025-12-24T20:42:21.269730+00:00", "meta": {"OBJECT_NAME": "GSAT0207 (GALILEO 15)", "OBJECT_ID": "2016-069A", "EPOCH": "2025-12-22T04:24:39.710016", "MEAN_MOTION": 1.70474442, "ECCENTRICITY": 0.00024396, "INCLINATION": 55.3874, "RA_OF_ASC_NODE": 105.9888, "ARG_OF_PERICENTER": 317.4324, "MEAN_ANOMALY": 42.5257, "EPHEMERIS_TYPE": 0, "CLASSIFICATION_TYPE": "U", "NORAD_CAT_ID": 41859, "ELEMENT_SET_NO": 999, "REV_AT_EPOCH": 5638, "BSTAR": 0, "MEAN_MOTION_DOT": 6e-08, "MEAN_MOTION_DDOT": 0}, "tle": {"line1": "1 41859U 16069A   25356.18379294  .00000006  00000+0  00000+0 0  9997", "line2": "2 41859  55.3874 105.9888 0002439 317.4324  42.5257  1.70474442 56382"}}, "geometry": {"type": "Point", "coordinates": [-59.82060473783342, -19.662592501758816]}}, {"type": "Feature", "properties": {"norad_id": 41860, "name": "GSAT0212 (GALILEO 16)", "group": "gnss", "lat": -48.79679561460211, "lon": 53.94118873995469, "alt_km": 23226.9737433584, "timestamp": "2025-12-24T20:42:21.269741+00:00", "meta": {"OBJECT_NAME": "GSAT0212 (GALILEO 16)", "OBJECT_ID": "2016-069B", "EPOCH": "2025-12-23T19:07:58.352160", "MEAN_MOTION": 1.7047463, "ECCENTRICITY": 0.00020402, "INCLINATION": 55.386, "RA_OF_ASC_NODE": 105.9395, "ARG_OF_PERICENTER": 18.1748, "MEAN_ANOMALY": 341.8198, "EPHEMERIS_TYPE": 0, "CLASSIFICATION_TYPE": "U", "NORAD_CAT_ID": 41860, "ELEMENT_SET_NO": 999, "REV_AT_EPOCH": 5666, "BSTAR": 0, "MEAN_MOTION_DOT": 1.3e-07, "MEAN_MOTION_DDOT": 0}, "tle": {"line1": "1 41860U 16069B   25357.79720315  .00000013  00000+0  00000+0 0  9999", "line2": "2 41860  55.3860 105.9395 0002040  18.1748 341.8198  1.70474630 56664"}}, "geometry": {"type": "Point", "coordinates": [53.94118873995469, -48.79679561460211]}}, {"type": "Feature", "properties": {"norad_id": 41861, "name": "GSAT0213 (GALILEO 17)", "group": "gnss", "lat": 49.935525694780914, "lon": 160.99591364948455, "alt_km": 23222.894851270717, "timestamp": "2025-12-24T20:42:21.269752+00:00", "meta": {"OBJECT_NAME": "GSAT0213 (GALILEO 17)", "OBJECT_ID": "2016-069C", "EPOCH": "2025-12-21T19:38:29.842080", "MEAN_MOTION": 1.70474953, "ECCENTRICITY": 0.00027355, "INCLINATION": 55.3872, "RA_OF_ASC_NODE": 106.002, "ARG_OF_PERICENTER": 282.3014, "MEAN_ANOMALY": 77.6427, "EPHEMERIS_TYPE": 0, "CLASSIFICATION_TYPE": "U", "NORAD_CAT_ID": 41861, "ELEMENT_SET_NO": 999, "REV_AT_EPOCH": 5649, "BSTAR": 0, "MEAN_MOTION_DOT": 4e-08, "MEAN_MOTION_DDOT": 0}, "tle": {"line1": "1 41861U 16069C   25355.81840095  .00000004  00000+0  00000+0 0  9999", "line2": "2 41861  55.3872 106.0020 0002735 282.3014  77.6427  1.70474953 56495"}}, "geometry": {"type": "Point", "coordinates": [160.99591364948455, 49.935525694780914]}}, {"type": "Feature", "properties": {"norad_id": 41862, "name": "GSAT0214 (GALILEO 18)", "group": "gnss", "lat": -17.348014214523555, "lon": 93.47005050318171, "alt_km": 23221.494753318562, "timestamp": "2025-12-24T20:42:21.269765+00:00", "meta": {"OBJECT_NAME": "GSAT0214 (GALILEO 18)", "OBJECT_ID": "2016-069D", "EPOCH": "2025-12-21T09:04:04.029024", "MEAN_MOTION": 1.70474854, "ECCENTRICITY": 0.00016223, "INCLINATION": 55.385, "RA_OF_ASC_NODE": 106.0069, "ARG_OF_PERICENTER": 287.8422, "MEAN_ANOMALY": 72.112, "EPHEMERIS_TYPE": 0, "CLASSIFICATION_TYPE": "U", "NORAD_CAT_ID": 41862, "ELEMENT_SET_NO": 999, "REV_AT_EPOCH": 5661, "BSTAR": 0, "MEAN_MOTION_DOT": 2e-08, "MEAN_MOTION_DDOT": 0}, "tle": {"line1": "1 41862U 16069D   25355.37782441  .00000002  00000+0  00000+0 0  9999", "line2": "2 41862  55.3850 106.0069 0001622 287.8422  72.1120  1.70474854 56616"}}, "geometry": {"type": "Point", "coordinates": [93.47005050318171, -17.348014214523555]}}, {"type": "Feature", "properties": {"norad_id": 42709, "name": "SES-15 (WAAS/PRN 133)", "group": "gnss", "lat": -0.03545927058511614, "lon": -84.952393687412, "alt_km": 35786.97631609671, "timestamp": "2025-12-24T20:42:21.269779+00:00", "meta": {"OBJECT_NAME": "SES-15 (WAAS/PRN 133)", "OBJECT_ID": "2017-026A", "EPOCH": "2025-12-24T06:22:23.355840", "MEAN_MOTION": 1.00266732, "ECCENTRICITY": 1.721e-05, "INCLINATION": 0.0196, "RA_OF_ASC_NODE": 336.7212, "ARG_OF_PERICENTER": 347.0799, "MEAN_ANOMALY": 95.6852, "EPHEMERIS_TYPE": 0, "CLASSIFICATION_TYPE": "U", "NORAD_CAT_ID": 42709, "ELEMENT_SET_NO": 999, "REV_AT_EPOCH": 567, "BSTAR": 0, "MEAN_MOTION_DOT": 8.1e-07, "MEAN_MOTION_DDOT": 0}, "tle": {"line1": "1 42709U 17026A   25358.26554810  .00000081  00000+0  00000+0 0  9999", "line2": "2 42709   0.0196 336.7212 0000172 347.0799  95.6852  1.00266732  5673"}}, "geometry": {"type": "Point", "coordinates": [-84.952393687412, -0.03545927058511614]}}]}